[{"OBJECT_NAME":"PEXT (BARD)","OBJECT_ID":"2025-154F","EPOCH":"2026-03-09T17:02:14.512416","MEAN_MOTION":15.19773826,"ECCENTRICITY":0.0001238,"INCLINATION":97.4066,"RA_OF_ASC_NODE":135.586,"ARG_OF_PERICENTER":270.8362,"MEAN_ANOMALY":89.2731,"EPHEMERIS_TYPE":0,"CLASSIFICATION_TYPE":"U","NORAD_CAT_ID":64874,"ELEMENT_SET_NO":999,"REV_AT_EPOCH":3473,"BSTAR":0.00020462446,"MEAN_MOTION_DOT":4.311e-5,"MEAN_MOTION_DDOT":0},{"OBJECT_NAME":"POEM","OBJECT_ID":"2022-072E","EPOCH":"2026-03-08T08:06:01.299456","MEAN_MOTION":15.22764653,"ECCENTRICITY":0.00236837,"INCLINATION":9.9515,"RA_OF_ASC_NODE":116.6548,"ARG_OF_PERICENTER":142.2805,"MEAN_ANOMALY":217.9074,"EPHEMERIS_TYPE":0,"CLASSIFICATION_TYPE":"U","NORAD_CAT_ID":52939,"ELEMENT_SET_NO":999,"REV_AT_EPOCH":20410,"BSTAR":0.00045784559,"MEAN_MOTION_DOT":0.00012084,"MEAN_MOTION_DDOT":0}]
